$$SOE
2461295.500000000, A.D. 2026-Sep-12 00:00:00.0000, -2.375937082443939E+08, -1.357759667245207E+08, 8.758037695623925E+07,
2461302.500000000, A.D. 2026-Sep-19 00:00:00.0000, -2.329749166976743E+08, -1.474778442059221E+08, 8.451934083721128E+07,
2461309.500000000, A.D. 2026-Sep-26 00:00:00.0000, -2.278846595603953E+08, -1.588813175007692E+08, 8.128725527005391E+07,
2461316.500000000, A.D. 2026-Oct-03 00:00:00.0000, -2.223382769785150E+08, -1.699668263125474E+08, 7.789245869317201E+07,
2461323.500000000, A.D. 2026-Oct-10 00:00:00.0000, -2.163516678491493E+08, -1.807158534865564E+08, 7.434342708914322E+07,
2461330.500000000, A.D. 2026-Oct-17 00:00:00.0000, -2.099412327464670E+08, -1.911109184493306E+08, 7.064875045532329E+07,
2461337.500000000, A.D. 2026-Oct-24 00:00:00.0000, -2.031238199059334E+08, -2.011355677776420E+08, 6.681711083670675E+07,
2461344.500000000, A.D. 2026-Oct-31 00:00:00.0000, -1.959166741926535E+08, -2.107743633804949E+08, 6.285726187700583E+07,
2461351.500000000, A.D. 2026-Nov-07 00:00:00.0000, -1.883373887069310E+08, -2.200128686113983E+08, 5.877800982238810E+07,
2461358.500000000, A.D. 2026-Nov-14 00:00:00.0000, -1.804038587905385E+08, -2.288376317872775E+08, 5.458819598230315E+07,
2461365.500000000, A.D. 2026-Nov-21 00:00:00.0000, -1.721342401847050E+08, -2.372361667670368E+08, 5.029668081166586E+07,
2461372.500000000, A.D. 2026-Nov-28 00:00:00.0000, -1.635469122559077E+08, -2.451969339069486E+08, 4.591232939687519E+07,
2461379.500000000, A.D. 2026-Dec-05 00:00:00.0000, -1.546604425747078E+08, -2.527093223361475E+08, 4.144399789443836E+07,
2461386.500000000, A.D. 2026-Dec-12 00:00:00.0000, -1.454935525774998E+08, -2.597636307014104E+08, 3.690052109315527E+07,
2461393.500000000, A.D. 2026-Dec-19 00:00:00.0000, -1.360650860820744E+08, -2.663510466056846E+08, 3.229070120196758E+07,
2461400.500000000, A.D. 2026-Dec-26 00:00:00.0000, -1.263939806736310E+08, -2.724636258125351E+08, 2.762329773187648E+07,
2461407.500000000, A.D. 2027-Jan-02 00:00:00.0000, -1.164992415515241E+08, -2.780942715881716E+08, 2.290701835644919E+07,
2461414.500000000, A.D. 2027-Jan-09 00:00:00.0000, -1.063999175806787E+08, -2.832367143241056E+08, 1.815051066844441E+07,
2461421.500000000, A.D. 2027-Jan-16 00:00:00.0000, -9.611507937419841E+07, -2.878854915796337E+08, 1.336235475915152E+07,
2461428.500000000, A.D. 2027-Jan-23 00:00:00.0000, -8.566379922608274E+07, -2.920359287131418E+08, 8.551056543715477E+06,
2461435.500000000, A.D. 2027-Jan-30 00:00:00.0000, -7.506513257176262E+07, -2.956841202598415E+08, 3.725041742920950E+06,
2461442.500000000, A.D. 2027-Feb-06 00:00:00.0000, -6.433810041699011E+07, -2.988269118093483E+08, -1.107349556699142E+06,
2461449.500000000, A.D. 2027-Feb-13 00:00:00.0000, -5.350167306187896E+07, -3.014618812425015E+08, -5.937867687423199E+06,
2461456.500000000, A.D. 2027-Feb-20 00:00:00.0000, -4.257475735162102E+07, -3.035873201833222E+08, -1.075835744010308E+07,
2461463.500000000, A.D. 2027-Feb-27 00:00:00.0000, -3.157618592648295E+07, -3.052022189352786E+08, -1.556076181034181E+07,
2461470.500000000, A.D. 2027-Mar-06 00:00:00.0000, -2.052470532679899E+07, -3.063062530309058E+08, -2.033712562942705E+07,
2461477.500000000, A.D. 2027-Mar-13 00:00:00.0000, -9.438964435777191E+06, -3.068997693875998E+08, -2.507959882283522E+07,
2461484.500000000, A.D. 2027-Mar-20 00:00:00.0000, 1.662495720124343E+06, -3.069837729304754E+08, -2.978043931563340E+07,
2461491.500000000, A.D. 2027-Mar-27 00:00:00.0000, 1.276125112059151E+07, -3.065599142387124E+08, -3.443201569828689E+07,
2461498.500000000, A.D. 2027-Apr-03 00:00:00.0000, 2.383900316235433E+07, -3.056304782540113E+08, -3.902680971927695E+07,
2461505.500000000, A.D. 2027-Apr-10 00:00:00.0000, 3.487758651199366E+07, -3.041983740153691E+08, -4.355741864803150E+07,
2461512.500000000, A.D. 2027-Apr-17 00:00:00.0000, 4.585897654665732E+07, -3.022671254346393E+08, -4.801655755247928E+07,
2461519.500000000, A.D. 2027-Apr-24 00:00:00.0000, 5.676529657494550E+07, -2.998408631886587E+08, -5.239706154890347E+07,
2461526.500000000, A.D. 2027-May-01 00:00:00.0000, 6.757882523288262E+07, -2.969243177099207E+08, -5.669188809572650E+07,
2461533.500000000, A.D. 2027-May-08 00:00:00.0000, 7.828200444820186E+07, -2.935228125203921E+08, -6.089411934144376E+07,
2461540.500000000, A.D. 2027-May-15 00:00:00.0000, 8.885744656154436E+07, -2.896422569323522E+08, -6.499696435017720E+07,
2461547.500000000, A.D. 2027-May-22 00:00:00.0000, 9.928793912885748E+07, -2.852891406746059E+08, -6.899376130816308E+07,
2461554.500000000, A.D. 2027-May-29 00:00:00.0000, 1.095564508525718E+08, -2.804705318761120E+08, -7.287798017248526E+07,
2461561.500000000, A.D. 2027-Jun-05 00:00:00.0000, 1.196461396184247E+08, -2.751940752417769E+08, -7.664322562138358E+07,
2461568.500000000, A.D. 2027-Jun-12 00:00:00.0000, 1.295403607193932E+08, -2.694679899534188E+08, -8.028324012065260E+07,
2461575.500000000, A.D. 2027-Jun-19 00:00:00.0000, 1.392226750225329E+08, -2.633010681905949E+08, -8.379190718528733E+07,
2461582.500000000, A.D. 2027-Jun-26 00:00:00.0000, 1.486768574437810E+08, -2.567026744879873E+08, -8.716325491602606E+07,
2461589.500000000, A.D. 2027-Jul-03 00:00:00.0000, 1.578869059467019E+08, -2.496827458726420E+08, -9.039145985446742E+07,
2461596.500000000, A.D. 2027-Jul-10 00:00:00.0000, 1.668370511827975E+08, -2.422517927189003E+08, -9.347085119023032E+07,
2461603.500000000, A.D. 2027-Jul-17 00:00:00.0000, 1.755117668880808E+08, -2.344209002987970E+08, -9.639591535454789E+07,
2461610.500000000, A.D. 2027-Jul-24 00:00:00.0000, 1.838957812723716E+08, -2.262017310222105E+08, -9.916130104554957E+07,
2461617.500000000, A.D. 2027-Jul-31 00:00:00.0000, 1.919740898958723E+08, -2.176065270601732E+08, -1.017618247300295E+08,
2461624.500000000, A.D. 2027-Aug-07 00:00:00.0000, 1.997319699138704E+08, -2.086481121265225E+08, -1.041924765351702E+08,
2461631.500000000, A.D. 2027-Aug-14 00:00:00.0000, 2.071549934659587E+08, -1.993398925888403E+08, -1.064484263621770E+08,
2461638.500000000, A.D. 2027-Aug-21 00:00:00.0000, 2.142290409045089E+08, -1.896958611758880E+08, -1.085250305720882E+08,
2461645.500000000, A.D. 2027-Aug-28 00:00:00.0000, 2.209403173738805E+08, -1.797306019715284E+08, -1.104178394802443E+08,
2461652.500000000, A.D. 2027-Sep-04 00:00:00.0000, 2.272753716410058E+08, -1.694592940824587E+08, -1.121226053707954E+08,
2461659.500000000, A.D. 2027-Sep-11 00:00:00.0000, 2.332211158590533E+08, -1.588977145242497E+08, -1.136352909818584E+08,
2461666.500000000, A.D. 2027-Sep-18 00:00:00.0000, 2.387648464682791E+08, -1.480622408488660E+08, -1.149520785484305E+08,
2461673.500000000, A.D. 2027-Sep-25 00:00:00.0000, 2.438942665285347E+08, -1.369698534530313E+08, -1.160693794483223E+08,
2461680.500000000, A.D. 2027-Oct-02 00:00:00.0000, 2.485975096190937E+08, -1.256381373899490E+08, -1.169838444695242E+08,
2461687.500000000, A.D. 2027-Oct-09 00:00:00.0000, 2.528631653831629E+08, -1.140852835273327E+08, -1.176923747108960E+08,
2461694.500000000, A.D. 2027-Oct-16 00:00:00.0000, 2.566803068266798E+08, -1.023300889331761E+08, -1.181921331301317E+08,
2461701.500000000, A.D. 2027-Oct-23 00:00:00.0000, 2.600385196665568E+08, -9.039195630593348E+07, -1.184805567585021E+08,
2461708.500000000, A.D. 2027-Oct-30 00:00:00.0000, 2.629279341318666E+08, -7.829089163057798E+07, -1.185553695566540E+08,
2461715.500000000, A.D. 2027-Nov-06 00:00:00.0000, 2.653392580809937E+08, -6.604749871399191E+07, -1.184145957043400E+08,
2461722.500000000, A.D. 2027-Nov-13 00:00:00.0000, 2.672638094597881E+08, -5.368297245341623E+07, -1.180565732978874E+08,
2461729.500000000, A.D. 2027-Nov-20 00:00:00.0000, 2.686935509871287E+08, -4.121909278425331E+07, -1.174799688700214E+08,
2461736.500000000, A.D. 2027-Nov-27 00:00:00.0000, 2.696211286534396E+08, -2.867821608296801E+07, -1.166837925983284E+08,
2461743.500000000, A.D. 2027-Dec-04 00:00:00.0000, 2.700399119620892E+08, -1.608326284034334E+07, -1.156674138975620E+08,
2461750.500000000, A.D. 2027-Dec-11 00:00:00.0000, 2.699440352946386E+08, -3.457702289712571E+06, -1.144305773707651E+08,
2461757.500000000, A.D. 2027-Dec-18 00:00:00.0000, 2.693284405801737E+08, 9.174465958232366E+06, -1.129734191070798E+08,
2461764.500000000, A.D. 2027-Dec-25 00:00:00.0000, 2.681889212967079E+08, 2.178873356476484E+07, -1.112964832613625E+08,
2461771.500000000, A.D. 2028-Jan-01 00:00:00.0000, 2.665221676883993E+08, 3.436010870657607E+07, -1.094007388215291E+08,
$$EOE